IRIDIUM 116             
1 43072U 17083C   25262.23407595  .00000114  00000+0  33667-4 0  9991
2 43072  86.3906  75.2682 0002266  83.5065 276.6389 14.34217379405330
IRIDIUM 130             
1 43073U 17083D   25262.20235163  .00000002  00000+0 -64055-5 0  9992
2 43073  86.3917  75.5309 0002368  86.0246 274.1221 14.34217393405271
IRIDIUM 151             
1 43074U 17083E   25262.24674880 -.00000030  00000+0 -17708-4 0  9994
2 43074  86.3909  75.3147 0002116  84.0677 276.0760 14.34217134405304
IRIDIUM 134             
1 43075U 17083F   25262.21503679 -.00000005  00000+0 -89059-5 0  9990
2 43075  86.3912  75.3324 0002322  87.1552 272.9910 14.34217364405263
IRIDIUM 137             
1 43076U 17083G   25262.22772155  .00000028  00000+0  27585-5 0  9998
2 43076  86.3912  75.4144 0002079  72.5641 287.5782 14.34217591405330
IRIDIUM 141             
1 43077U 17083H   25262.22137844  .00000012  00000+0 -27416-5 0  9996
2 43077  86.3908  75.2630 0001949  93.0175 267.1244 14.34217515405332
IRIDIUM 153             
1 43078U 17083J   25261.89448326 -.00000023  00000+0 -15440-4 0  9995
2 43078  86.3962  43.8604 0001988 105.0814 255.0602 14.34217566406399
IRIDIUM 131             
1 43079U 17083K   25262.20869342  .00000027  00000+0  25910-5 0  9993
2 43079  86.3912  75.4362 0001988  90.7540 269.3884 14.34217494405268
